STARLINK-11708 [DTC]    
1 64238U 25119F   25253.38666171  .00157669  00000+0  12064-2 0  9994
2 64238  43.0004 216.2879 0001525 275.9081  84.1613 15.70892385 16880
STARLINK-11683 [DTC]    
1 64239U 25119G   25254.16545892  .00181634  00000+0  13829-2 0  9997
2 64239  43.0003 210.9201 0000765 227.9447 132.1356 15.70932600 17017
STARLINK-11684 [DTC]    
1 64240U 25119H   25253.94298168  .00251088  00000+0  19016-2 0  9990
2 64240  43.0007 212.7101 0005502 292.6686  67.3599 15.70830257 16977
STARLINK-11689 [DTC]    
1 64241U 25119J   25254.25028077  .00184018  00000+0  14051-2 0  9998
2 64241  43.0020 210.7101 0002452 274.7063  85.3524 15.70854909 17027
STARLINK-11690 [DTC]    
1 64242U 25119K   25254.18138782  .00180143  00000+0  13769-2 0  9996
2 64242  42.9956 211.0455 0000614 269.3293  90.7504 15.70844633 17013
STARLINK-11694 [DTC]    
1 64243U 25119L   25253.90063392  .00168480  00000+0  12831-2 0  9999
2 64243  42.9964 213.2643 0001370 135.6555 224.4423 15.70969697 16969
STARLINK-11710 [DTC]    
1 64244U 25119M   25253.94828589  .00270460  00000+0  20284-2 0  9994
2 64244  42.9994 212.7517 0001901 226.0116 134.0595 15.71015189 16971
STARLINK-11704 [DTC]    
1 64245U 25119N   25254.23434777  .00202548  00000+0  15377-2 0  9999
2 64245  43.0009 210.5777 0003489 250.1235 109.9257 15.70931486 17027
STARLINK-34203          
1 64246U 25119P   25254.02910549  .00017578  00000+0  64684-3 0  9996
2 64246  43.0016 241.5854 0001510 269.2779  90.7900 15.27576438 16703
STARLINK-33865          
1 64247U 25119Q   25253.94829643  .00017934  00000+0  65929-3 0  9990
2 64247  43.0006 241.8390 0000342 331.5592  28.5241 15.27597922 16651
STARLINK-34234          
1 64248U 25119R   25254.03938166  .00016613  00000+0  61172-3 0  9992
2 64248  43.0018 241.6521 0001387 270.2034  89.8658 15.27587045 16690
STARLINK-34256          
1 64249U 25119S   25254.02138744  .00013689  00000+0  50611-3 0  9992
2 64249  43.0025 241.5232 0001659 253.8733 106.1936 15.27575817 16698
STARLINK-34229          
1 64250U 25119T   25254.25353338  .00020237  00000+0  74247-3 0  9995
2 64250  42.9994 240.6927 0000348 185.0857 174.9991 15.27598779 16721
STARLINK-34224          
1 64251U 25119U   25254.01753876  .00015016  00000+0  55390-3 0  9998
2 64251  42.9989 241.4995 0000780 211.6394 148.4411 15.27590728 16697
STARLINK-34215          
1 64252U 25119V   25254.23168657  .00019715  00000+0  72373-3 0  9990
2 64252  43.0028 240.5257 0002126 283.6454  76.4160 15.27592440 16725
STARLINK-33893          
1 64253U 25119W   25254.24710715  .00020351  00000+0  74644-3 0  9991
2 64253  42.9995 240.6368 0003152 282.5496  77.5003 15.27602622 16727
