[{"OBJECT_NAME":"STARLINK-11708 [DTC]","OBJECT_ID":"2025-119F","EPOCH":"2025-09-10T09:16:47.571744","MEAN_MOTION":15.70892385,"ECCENTRICITY":0.00015253,"INCLINATION":43.0004,"RA_OF_ASC_NODE":216.2879,"ARG_OF_PERICENTER":275.9081,"MEAN_ANOMALY":84.1613,"EPHEMERIS_TYPE":0,"CLASSIFICATION_TYPE":"U","NORAD_CAT_ID":64238,"ELEMENT_SET_NO":999,"REV_AT_EPOCH":1688,"BSTAR":0.0012064196,"MEAN_MOTION_DOT":0.00157669,"MEAN_MOTION_DDOT":0},{"OBJECT_NAME":"STARLINK-11683 [DTC]","OBJECT_ID":"2025-119G","EPOCH":"2025-09-11T03:58:15.650688","MEAN_MOTION":15.709326,"ECCENTRICITY":7.659e-5,"INCLINATION":43.0003,"RA_OF_ASC_NODE":210.9201,"ARG_OF_PERICENTER":227.9447,"MEAN_ANOMALY":132.1356,"EPHEMERIS_TYPE":0,"CLASSIFICATION_TYPE":"U","NORAD_CAT_ID":64239,"ELEMENT_SET_NO":999,"REV_AT_EPOCH":1701,"BSTAR":0.0013829184,"MEAN_MOTION_DOT":0.00181634,"MEAN_MOTION_DDOT":0},{"OBJECT_NAME":"STARLINK-11684 [DTC]","OBJECT_ID":"2025-119H","EPOCH":"2025-09-10T22:37:53.617152","MEAN_MOTION":15.70830257,"ECCENTRICITY":0.00055026,"INCLINATION":43.0007,"RA_OF_ASC_NODE":212.7101,"ARG_OF_PERICENTER":292.6686,"MEAN_ANOMALY":67.3599,"EPHEMERIS_TYPE":0,"CLASSIFICATION_TYPE":"U","NORAD_CAT_ID":64240,"ELEMENT_SET_NO":999,"REV_AT_EPOCH":1697,"BSTAR":0.0019016046,"MEAN_MOTION_DOT":0.00251088,"MEAN_MOTION_DDOT":0},{"OBJECT_NAME":"STARLINK-11689 [DTC]","OBJECT_ID":"2025-119J","EPOCH":"2025-09-11T06:00:24.258528","MEAN_MOTION":15.70854909,"ECCENTRICITY":0.00024524,"INCLINATION":43.002,"RA_OF_ASC_NODE":210.7101,"ARG_OF_PERICENTER":274.7063,"MEAN_ANOMALY":85.3524,"EPHEMERIS_TYPE":0,"CLASSIFICATION_TYPE":"U","NORAD_CAT_ID":64241,"ELEMENT_SET_NO":999,"REV_AT_EPOCH":1702,"BSTAR":0.0014051202,"MEAN_MOTION_DOT":0.00184018,"MEAN_MOTION_DDOT":0},{"OBJECT_NAME":"STARLINK-11690 [DTC]","OBJECT_ID":"2025-119K","EPOCH":"2025-09-11T04:21:11.907648","MEAN_MOTION":15.70844633,"ECCENTRICITY":6.144e-5,"INCLINATION":42.9956,"RA_OF_ASC_NODE":211.0455,"ARG_OF_PERICENTER":269.3293,"MEAN_ANOMALY":90.7504,"EPHEMERIS_TYPE":0,"CLASSIFICATION_TYPE":"U","NORAD_CAT_ID":64242,"ELEMENT_SET_NO":999,"REV_AT_EPOCH":1701,"BSTAR":0.0013768982,"MEAN_MOTION_DOT":0.00180143,"MEAN_MOTION_DDOT":0},{"OBJECT_NAME":"STARLINK-11694 [DTC]","OBJECT_ID":"2025-119L","EPOCH":"2025-09-10T21:36:54.770688","MEAN_MOTION":15.70969697,"ECCENTRICITY":0.00013709,"INCLINATION":42.9964,"RA_OF_ASC_NODE":213.2643,"ARG_OF_PERICENTER":135.6555,"MEAN_ANOMALY":224.4423,"EPHEMERIS_TYPE":0,"CLASSIFICATION_TYPE":"U","NORAD_CAT_ID":64243,"ELEMENT_SET_NO":999,"REV_AT_EPOCH":1696,"BSTAR":0.0012830564,"MEAN_MOTION_DOT":0.0016848,"MEAN_MOTION_DDOT":0},{"OBJECT_NAME":"STARLINK-11710 [DTC]","OBJECT_ID":"2025-119M","EPOCH":"2025-09-10T22:45:31.900896","MEAN_MOTION":15.71015189,"ECCENTRICITY":0.00019019,"INCLINATION":42.9994,"RA_OF_ASC_NODE":212.7517,"ARG_OF_PERICENTER":226.0116,"MEAN_ANOMALY":134.0595,"EPHEMERIS_TYPE":0,"CLASSIFICATION_TYPE":"U","NORAD_CAT_ID":64244,"ELEMENT_SET_NO":999,"REV_AT_EPOCH":1697,"BSTAR":0.0020284359,"MEAN_MOTION_DOT":0.0027046,"MEAN_MOTION_DDOT":0},{"OBJECT_NAME":"STARLINK-11704 [DTC]","OBJECT_ID":"2025-119N","EPOCH":"2025-09-11T05:37:27.647328","MEAN_MOTION":15.70931486,"ECCENTRICITY":0.00034895,"INCLINATION":43.0009,"RA_OF_ASC_NODE":210.5777,"ARG_OF_PERICENTER":250.1235,"MEAN_ANOMALY":109.9257,"EPHEMERIS_TYPE":0,"CLASSIFICATION_TYPE":"U","NORAD_CAT_ID":64245,"ELEMENT_SET_NO":999,"REV_AT_EPOCH":1702,"BSTAR":0.0015376887,"MEAN_MOTION_DOT":0.00202548,"MEAN_MOTION_DDOT":0},{"OBJECT_NAME":"STARLINK-34203","OBJECT_ID":"2025-119P","EPOCH":"2025-09-11T00:41:54.714336","MEAN_MOTION":15.27576438,"ECCENTRICITY":0.00015106,"INCLINATION":43.0016,"RA_OF_ASC_NODE":241.5854,"ARG_OF_PERICENTER":269.2779,"MEAN_ANOMALY":90.79,"EPHEMERIS_TYPE":0,"CLASSIFICATION_TYPE":"U","NORAD_CAT_ID":64246,"ELEMENT_SET_NO":999,"REV_AT_EPOCH":1670,"BSTAR":0.00064683767,"MEAN_MOTION_DOT":0.00017578,"MEAN_MOTION_DDOT":0},{"OBJECT_NAME":"STARLINK-33865","OBJECT_ID":"2025-119Q","EPOCH":"2025-09-10T22:45:32.811552","MEAN_MOTION":15.27597922,"ECCENTRICITY":3.423e-5,"INCLINATION":43.0006,"RA_OF_ASC_NODE":241.839,"ARG_OF_PERICENTER":331.5592,"MEAN_ANOMALY":28.5241,"EPHEMERIS_TYPE":0,"CLASSIFICATION_TYPE":"U","NORAD_CAT_ID":64247,"ELEMENT_SET_NO":999,"REV_AT_EPOCH":1665,"BSTAR":0.00065928582,"MEAN_MOTION_DOT":0.00017934,"MEAN_MOTION_DDOT":0},{"OBJECT_NAME":"STARLINK-34234","OBJECT_ID":"2025-119R","EPOCH":"2025-09-11T00:56:42.575424","MEAN_MOTION":15.27587045,"ECCENTRICITY":0.00013879,"INCLINATION":43.0018,"RA_OF_ASC_NODE":241.6521,"ARG_OF_PERICENTER":270.2034,"MEAN_ANOMALY":89.8658,"EPHEMERIS_TYPE":0,"CLASSIFICATION_TYPE":"U","NORAD_CAT_ID":64248,"ELEMENT_SET_NO":999,"REV_AT_EPOCH":1669,"BSTAR":0.00061172179,"MEAN_MOTION_DOT":0.00016613,"MEAN_MOTION_DDOT":0},{"OBJECT_NAME":"STARLINK-34256","OBJECT_ID":"2025-119S","EPOCH":"2025-09-11T00:30:47.874816","MEAN_MOTION":15.27575817,"ECCENTRICITY":0.00016594,"INCLINATION":43.0025,"RA_OF_ASC_NODE":241.5232,"ARG_OF_PERICENTER":253.8733,"MEAN_ANOMALY":106.1936,"EPHEMERIS_TYPE":0,"CLASSIFICATION_TYPE":"U","NORAD_CAT_ID":64249,"ELEMENT_SET_NO":999,"REV_AT_EPOCH":1669,"BSTAR":0.0005061062,"MEAN_MOTION_DOT":0.00013689,"MEAN_MOTION_DDOT":0},{"OBJECT_NAME":"STARLINK-34229","OBJECT_ID":"2025-119T","EPOCH":"2025-09-11T06:05:05.284032","MEAN_MOTION":15.27598779,"ECCENTRICITY":3.489e-5,"INCLINATION":42.9994,"RA_OF_ASC_NODE":240.6927,"ARG_OF_PERICENTER":185.0857,"MEAN_ANOMALY":174.9991,"EPHEMERIS_TYPE":0,"CLASSIFICATION_TYPE":"U","NORAD_CAT_ID":64250,"ELEMENT_SET_NO":999,"REV_AT_EPOCH":1672,"BSTAR":0.00074246677,"MEAN_MOTION_DOT":0.00020237,"MEAN_MOTION_DDOT":0},{"OBJECT_NAME":"STARLINK-34224","OBJECT_ID":"2025-119U","EPOCH":"2025-09-11T00:25:15.348864","MEAN_MOTION":15.27590728,"ECCENTRICITY":7.808e-5,"INCLINATION":42.9989,"RA_OF_ASC_NODE":241.4995,"ARG_OF_PERICENTER":211.6394,"MEAN_ANOMALY":148.4411,"EPHEMERIS_TYPE":0,"CLASSIFICATION_TYPE":"U","NORAD_CAT_ID":64251,"ELEMENT_SET_NO":999,"REV_AT_EPOCH":1669,"BSTAR":0.00055389788,"MEAN_MOTION_DOT":0.00015016,"MEAN_MOTION_DDOT":0},{"OBJECT_NAME":"STARLINK-34215","OBJECT_ID":"2025-119V","EPOCH":"2025-09-11T05:33:37.719648","MEAN_MOTION":15.2759244,"ECCENTRICITY":0.00021267,"INCLINATION":43.0028,"RA_OF_ASC_NODE":240.5257,"ARG_OF_PERICENTER":283.6454,"MEAN_ANOMALY":76.416,"EPHEMERIS_TYPE":0,"CLASSIFICATION_TYPE":"U","NORAD_CAT_ID":64252,"ELEMENT_SET_NO":999,"REV_AT_EPOCH":1672,"BSTAR":0.00072373482,"MEAN_MOTION_DOT":0.00019715,"MEAN_MOTION_DDOT":0},{"OBJECT_NAME":"STARLINK-33893","OBJECT_ID":"2025-119W","EPOCH":"2025-09-11T05:55:50.057760","MEAN_MOTION":15.27602622,"ECCENTRICITY":0.00031522,"INCLINATION":42.9995,"RA_OF_ASC_NODE":240.6368,"ARG_OF_PERICENTER":282.5496,"MEAN_ANOMALY":77.5003,"EPHEMERIS_TYPE":0,"CLASSIFICATION_TYPE":"U","NORAD_CAT_ID":64253,"ELEMENT_SET_NO":999,"REV_AT_EPOCH":1672,"BSTAR":0.00074644133,"MEAN_MOTION_DOT":0.00020351,"MEAN_MOTION_DDOT":0}]
